{
  "norad_id": 58171,
  "name": "STARLINK-30752",
  "history": [
    {
      "epoch": "2026-03-28T20:09:34.807680",
      "apogee_km": 475.8329447748747,
      "perigee_km": 474.6511480921072,
      "latitude_deg": 39.072645379030064,
      "longitude_deg": 77.73867519991472,
      "semi_major_axis_km": 6853.379046433491,
      "eccentricity": 8.622e-05,
      "inclination_deg": 53.1596,
      "raan_deg": 130.4867,
      "arg_perigee_deg": 87.3186,
      "mean_anomaly_deg": 272.7914,
      "mean_motion_rev_day": 15.30190965
    },
    {
      "epoch": "2026-03-29T02:25:47.518752",
      "apogee_km": 475.87273660856863,
      "perigee_km": 474.6034915374421,
      "latitude_deg": 11.230405722114115,
      "longitude_deg": 102.81946528027765,
      "semi_major_axis_km": 6853.375114073005,
      "eccentricity": 9.26e-05,
      "inclination_deg": 53.1594,
      "raan_deg": 129.2718,
      "arg_perigee_deg": 93.5004,
      "mean_anomaly_deg": 266.6102,
      "mean_motion_rev_day": 15.30192282
    }
  ]
}